[{"OBJECT_NAME":"STARLINK-35183","OBJECT_ID":"2025-210AA","EPOCH":"2026-03-09T22:09:23.848416","MEAN_MOTION":15.30217673,"ECCENTRICITY":9.528e-5,"INCLINATION":53.1606,"RA_OF_ASC_NODE":306.2156,"ARG_OF_PERICENTER":150.2781,"MEAN_ANOMALY":209.8274,"EPHEMERIS_TYPE":0,"CLASSIFICATION_TYPE":"U","NORAD_CAT_ID":65646,"ELEMENT_SET_NO":999,"REV_AT_EPOCH":2776,"BSTAR":0.0010638811,"MEAN_MOTION_DOT":0.000313,"MEAN_MOTION_DDOT":0},{"OBJECT_NAME":"TRANSPORTER-1 OBJECT AA","OBJECT_ID":"2021-006AA","EPOCH":"2026-03-09T22:58:14.761920","MEAN_MOTION":15.29982294,"ECCENTRICITY":0.00086604,"INCLINATION":97.2381,"RA_OF_ASC_NODE":112.457,"ARG_OF_PERICENTER":185.709,"MEAN_ANOMALY":174.4054,"EPHEMERIS_TYPE":0,"CLASSIFICATION_TYPE":"U","NORAD_CAT_ID":47437,"ELEMENT_SET_NO":999,"REV_AT_EPOCH":28414,"BSTAR":0.0002197941,"MEAN_MOTION_DOT":6.312e-5,"MEAN_MOTION_DDOT":0}]
